{
  "norad_id": 64552,
  "name": "HYPERFIELD-1B",
  "history": [
    {
      "epoch": "2026-03-28T22:04:08.250816",
      "apogee_km": 501.82362659596765,
      "perigee_km": 500.0404343218934,
      "latitude_deg": 81.80140290953116,
      "longitude_deg": 3.4758342399727553,
      "semi_major_axis_km": 6879.069030458931,
      "eccentricity": 0.00012961,
      "inclination_deg": 97.456,
      "raan_deg": 203.8727,
      "arg_perigee_deg": 137.3039,
      "mean_anomaly_deg": 222.8298,
      "mean_motion_rev_day": 15.21627192
    },
    {
      "epoch": "2026-03-29T05:57:36.995040",
      "apogee_km": 501.8094416870508,
      "perigee_km": 500.01400996961,
      "latitude_deg": 22.94110445992946,
      "longitude_deg": 35.0411055998411,
      "semi_major_axis_km": 6879.04872582833,
      "eccentricity": 0.0001305,
      "inclination_deg": 97.4561,
      "raan_deg": 204.1985,
      "arg_perigee_deg": 136.4311,
      "mean_anomaly_deg": 223.7028,
      "mean_motion_rev_day": 15.21633929
    }
  ]
}